IRIDIUM 112             
1 41925U 17003J   25236.96618370  .00000153  00000+0  47680-4 0  9997
2 41925  86.3976 212.0228 0002249  84.9807 275.1646 14.34218379450813
IRIDIUM 111             
1 41926U 17003K   25236.95349627  .00000175  00000+0  55354-4 0  9994
2 41926  86.3978 212.0920 0002284  90.7667 269.3790 14.34217382450798
IRIDIUM 113             
1 42803U 17039A   25236.86369379  .00000067  00000+0  16924-4 0  9994
2 42803  86.3917  86.0466 0001983  83.8920 276.2502 14.34217234428711
IRIDIUM 123             
1 42804U 17039B   25236.76563554  .00000044  00000+0  87129-5 0  9996
2 42804  86.3966 117.5801 0002109  95.0704 265.0732 14.34217866427468
IRIDIUM 120             
1 42805U 17039C   25236.64803980  .00000223  00000+0  72452-4 0  9995
2 42805  86.3906  85.9576 0002390  91.6824 268.4646 14.34220472428679
IRIDIUM 115             
1 42806U 17039D   25236.59057763  .00000293  00000+0  81245-4 0  9997
2 42806  86.4445  86.0700 0002307 106.1839 253.9616 14.43278444431487
IRIDIUM 118             
1 42807U 17039E   25236.72758020  .00000063  00000+0  15320-4 0  9993
2 42807  86.3963 117.5954 0001994  81.9860 278.1562 14.34217338427454
IRIDIUM 117             
1 42808U 17039F   25236.95591321  .00000036  00000+0  57735-5 0  9995
2 42808  86.3963 117.4603 0001979  91.1164 269.0258 14.34217804427514
